GSAT0211 (GALILEO 14)
1 41549U 16030A   25356.23479101  .00000073  00000+0  00000+0 0  9999
2 41549  55.1491 226.5620 0004088  17.5210 342.5988  1.70473275 59659